NOAA 15                 
1 25338U 98030A   22232.54488578  .00000098  00000+0  59247-4 0  9998
2 25338  98.6412 261.2322 0011525 109.2819 250.9609 14.26162801262153
NOAA 18                 
1 28654U 05018A   22232.51356966  .00000103  00000+0  79402-4 0  9990
2 28654  98.9455 302.8885 0014965 147.4303 212.7795 14.12766264889027
NOAA 19                 
1 33591U 09005A   22232.59292948  .00000110  00000+0  84704-4 0  9992
2 33591  99.1442 268.0646 0014028  12.4283 347.7231 14.12600227697249
METOP-B                 
1 38771U 12049A   22232.55389227  .00000040  00000+0  38411-4 0  9998
2 38771  98.6911 291.3435 0000832 135.6918   1.6135 14.21502295514844
SARAL                   
1 39086U 13009A   22232.53047390  .00000042  00000+0  31804-4 0  9996
2 39086  98.5491  57.2202 0002320  84.5603 275.5845 14.32057581495656
METOP-C                 
1 43689U 18087A   22232.56403770  .00000038  00000+0  37158-4 0  9995
2 43689  98.6793 291.4933 0002376 189.3939 170.7194 14.21502303196416
ANGELS                  
1 44876U 19092D   22232.46946232  .00002247  00000+0  11308-3 0  9997
2 44876  97.4766  55.0690 0013168 130.2626 229.9761 15.18181168147956
